OBJECT_NAME,OBJECT_ID,EPOCH,MEAN_MOTION,ECCENTRICITY,INCLINATION,RA_OF_ASC_NODE,ARG_OF_PERICENTER,MEAN_ANOMALY,EPHEMERIS_TYPE,CLASSIFICATION_TYPE,NORAD_CAT_ID,ELEMENT_SET_NO,REV_AT_EPOCH,BSTAR,MEAN_MOTION_DOT,MEAN_MOTION_DDOT
SL-16 R/B,1994-077B,2026-07-17T01:58:15.889440,14.15574322,.00041038,70.9821,80.2696,301.9446,58.1278,0,U,23405,999,63454,.41763816E-4,.34E-6,0
ARIANE 40+ R/B,1995-021B,2026-07-17T04:56:26.195136,14.39848217,.00079464,98.4399,267.8452,111.3729,267.5651,0,U,23561,999,63788,.49737148E-4,.113E-5,0
SL-16 R/B,1995-058B,2026-07-17T03:59:03.077376,14.15509802,.00146294,71.0208,268.4177,280.2644,79.6829,0,U,23705,999,58617,.15433369E-3,.254E-5,0
SL-16 R/B,1996-051B,2026-07-17T04:48:34.934976,14.12457307,.00179305,70.7645,261.1336,295.5028,64.4236,0,U,24298,999,53993,.1084759E-3,.151E-5,0
ORBVIEW 2 (SEASTAR),1997-037A,2026-07-17T04:47:23.148672,14.35567248,.00030359,98.8714,6.0545,56.9838,303.1637,0,U,24883,999,52705,.43973886E-4,.8E-6,0
SL-16 R/B,1998-043G,2026-07-16T21:37:48.381024,14.26072900,.00099405,98.8380,152.3188,6.6678,353.4632,0,U,25400,999,45740,.19552215E-4,.1E-7,0
SL-16 R/B,1998-045B,2026-07-17T04:25:00.886656,14.16205011,.0008076,71.0107,269.2461,203.5279,156.5476,0,U,25407,999,44543,-.27881895E-4,-.103E-5,0
ISS (ZARYA),1998-067A,2026-07-17T06:00:20.087136,15.49030578,.00067955,51.6315,151.3159,305.6667,54.3688,0,U,25544,999,57641,.73577935E-4,.361E-4,0
CZ-4B R/B,1999-025C,2026-07-17T00:57:55.382976,14.18287902,.00365469,98.6470,239.1252,334.3715,35.9973,0,U,25732,999,40650,.20305164E-4,-.1E-7,0
OKEAN-O,1999-039A,2026-07-17T03:40:39.820224,14.80498658,.00008703,97.9300,256.6046,91.1885,268.9427,0,U,25860,999,45354,.40488021E-4,.258E-5,0
SL-16 R/B,1999-039B,2026-07-17T03:32:00.081024,14.81871856,.00144583,97.9822,256.9223,191.9612,168.1260,0,U,25861,999,45603,.35342672E-4,.226E-5,0
DELTA 2 R/B,1999-041E,2026-07-17T06:10:39.444672,14.12090048,.05014257,51.7611,143.6563,10.8454,350.2827,0,U,25876,999,38133,.20360727E-3,.1025E-4,0
HELIOS 1B,1999-064A,2026-07-17T04:03:31.074624,14.88077720,.00018119,98.1581,104.1735,52.1499,307.9880,0,U,25977,999,70451,.72684387E-4,.61E-5,0
TERRA,1999-068A,2026-07-17T05:17:14.388288,14.61124594,.00034892,97.9440,246.5733,118.7184,314.4319,0,U,25994,999,41399,.43912467E-4,.172E-5,0
SL-16 R/B,2000-006B,2026-07-17T05:35:29.596416,14.15837954,.00172438,71.0002,185.4481,337.2618,22.7739,0,U,26070,999,36689,.11898724E-4,-.24E-6,0
TITAN 4B R/B,2000-047B,2026-07-17T06:13:55.890624,15.10338713,.00457767,67.9873,35.9149,256.7081,102.8962,0,U,26474,999,41247,.80466829E-4,.1212E-4,0
ENVISAT,2002-009A,2026-07-17T07:22:54.905952,14.39070990,.00013226,98.3846,148.9568,82.8193,90.2012,0,U,27386,999,27781,.19692326E-4,.18E-6,0
IDEFIX & ARIANE 42P R/B,2002-021B,2026-07-17T06:19:47.836704,14.31094255,.00120234,98.5941,135.4218,160.4674,199.6972,0,U,27422,999,26255,.46854335E-4,.8E-6,0
AQUA,2002-022A,2026-07-17T05:34:16.159008,14.62130152,.00012267,98.4298,168.1195,101.4578,317.4190,0,U,27424,999,28766,.76968253E-4,.338E-5,0
CZ-4B R/B,2002-024C,2026-07-17T01:56:39.341760,14.14568410,.00503714,98.8684,250.7044,16.6655,1.5139,0,U,27432,999,24753,.22050292E-4,-.2E-7,0
MIDORI II (ADEOS-II),2002-056A,2026-07-17T07:24:21.792384,14.29363612,.00013876,98.7896,157.8276,38.6491,321.4789,0,U,27597,999,22881,.5302501E-4,.9E-6,0
H-2A R/B,2002-056E,2026-07-17T07:38:28.457088,14.33834566,.0070989,98.3329,153.8973,134.6598,32.0770,0,U,27601,999,23268,.55423795E-4,.117E-5,0
CZ-4B R/B,2003-049C,2026-07-17T06:44:31.500096,14.55116808,.00477579,98.6911,198.3274,194.8421,165.1376,0,U,28059,999,20544,.37312747E-4,.112E-5,0
CZ-2C R/B,2004-012C,2026-07-16T19:44:51.104544,15.85560346,.00110352,97.7045,277.0808,186.1120,174.0017,0,U,28222,999,22458,.46137866E-3,.112094E-2,0
SL-16 R/B,2004-021B,2026-07-16T13:51:31.018176,14.14616508,.00062635,71.0029,322.0077,223.9423,136.1202,0,U,28353,999,14106,-.8289496E-5,-.64E-6,0
CZ-4B R/B,2004-035C,2026-07-17T01:41:19.212864,15.31007126,.0029378,97.3352,230.8131,225.6757,134.2076,0,U,28415,999,19969,.13556E-3,.4035E-4,0
CZ-2C R/B,2004-046B,2026-07-17T03:09:18.961344,14.27033576,.0140237,98.1913,105.0364,131.7007,229.6273,0,U,28480,999,12696,.37678107E-4,.62E-6,0
ARIANE 5 R/B,2004-049H,2026-07-16T23:17:19.778784,14.85479885,.00825788,98.2743,11.3789,292.4432,66.8051,0,U,28499,999,16498,.29716643E-4,.206E-5,0
CZ-2D R/B,2005-024B,2026-07-16T23:03:12.753792,15.72905116,.00027023,97.3465,218.9494,186.5626,173.5603,0,U,28738,999,16001,.32600058E-3,.44203E-3,0
ALOS (DAICHI),2006-002A,2026-07-17T07:27:58.818816,14.70104183,.00008678,98.1339,153.7884,104.8146,255.3156,0,U,28931,999,9252,.86526794E-4,.47E-5,0
